{"type": "FeatureCollection", "features": [ {"type": "Feature", "properties": {"norad_id": 34141, "name": "COSMOS 2251 DEB", "group": "cosmos-2251-debris", "lat": -61.75422761700734, "lon": -106.66616877444704, "alt_km": 750.5925087532878, "timestamp": "2025-12-06T05:40:09.639308+00:00", "meta": {"OBJECT_NAME": "COSMOS 2251 DEB", "OBJECT_ID": "1993-036LN", "EPOCH": "2025-12-05T05:36:10.428192", "MEAN_MOTION": 14.49108457, "ECCENTRICITY": 0.00480817, "INCLINATION": 74.0122, "RA_OF_ASC_NODE": 42.9622, "ARG_OF_PERICENTER": 131.6448, "MEAN_ANOMALY": 285.0675, "EPHEMERIS_TYPE": 0, "CLASSIFICATION_TYPE": "U", "NORAD_CAT_ID": 34141, "ELEMENT_SET_NO": 999, "REV_AT_EPOCH": 87585, "BSTAR": 0.0031696459, "MEAN_MOTION_DOT": 0.0001222, "MEAN_MOTION_DDOT": 0}, "tle": {"line1": "1 34141U 93036LN  25339.23345403  .00012220  00000+0  31696-2 0  9993", "line2": "2 34141  74.0122  42.9622 0048081 131.6448 285.0675 14.49108457875853"}}, "geometry": {"type": "Point", "coordinates": [-106.66616877444704, -61.75422761700734]}}, {"type": "Feature", "properties": {"norad_id": 34270, "name": "COSMOS 2251 DEB", "group": "cosmos-2251-debris", "lat": -9.668865298191777, "lon": 141.95998381060164, "alt_km": 672.1803567421102, "timestamp": "2025-12-06T05:40:09.639318+00:00", "meta": {"OBJECT_NAME": "COSMOS 2251 DEB", "OBJECT_ID": "1993-036LQ", "EPOCH": "2025-12-05T07:30:19.931616", "MEAN_MOTION": 14.65092009, "ECCENTRICITY": 0.00477979, "INCLINATION": 74.0111, "RA_OF_ASC_NODE": 320.9385, "ARG_OF_PERICENTER": 116.0973, "MEAN_ANOMALY": 244.5126, "EPHEMERIS_TYPE": 0, "CLASSIFICATION_TYPE": "U", "NORAD_CAT_ID": 34270, "ELEMENT_SET_NO": 999, "REV_AT_EPOCH": 88987, "BSTAR": 0.00062838792, "MEAN_MOTION_DOT": 3.401e-05, "MEAN_MOTION_DDOT": 0}, "tle": {"line1": "1 34270U 93036LQ  25339.31273069  .00003401  00000+0  62839-3 0  9998", "line2": "2 34270  74.0111 320.9385 0047797 116.0973 244.5126 14.65092009889873"}}, "geometry": {"type": "Point", "coordinates": [141.95998381060164, -9.668865298191777]}}, {"type": "Feature", "properties": {"norad_id": 34271, "name": "COSMOS 2251 DEB", "group": "cosmos-2251-debris", "lat": 6.166653756554497, "lon": -146.26354505600042, "alt_km": 663.3934847054661, "timestamp": "2025-12-06T05:40:09.639328+00:00", "meta": {"OBJECT_NAME": "COSMOS 2251 DEB", "OBJECT_ID": "1993-036LR", "EPOCH": "2025-12-04T16:13:28.726752", "MEAN_MOTION": 14.70483861, "ECCENTRICITY": 0.001964, "INCLINATION": 74.0199, "RA_OF_ASC_NODE": 214.9913, "ARG_OF_PERICENTER": 270.0975, "MEAN_ANOMALY": 120.1152, "EPHEMERIS_TYPE": 0, "CLASSIFICATION_TYPE": "U", "NORAD_CAT_ID": 34271, "ELEMENT_SET_NO": 999, "REV_AT_EPOCH": 88116, "BSTAR": 0.0046317, "MEAN_MOTION_DOT": 0.00028257, "MEAN_MOTION_DDOT": 0}, "tle": {"line1": "1 34271U 93036LR  25338.67602693  .00028257  00000+0  46317-2 0  9994", "line2": "2 34271  74.0199 214.9913 0019640 270.0975 120.1152 14.70483861881166"}}, "geometry": {"type": "Point", "coordinates": [-146.26354505600042, 6.166653756554497]}}, {"type": "Feature", "properties": {"norad_id": 34273, "name": "COSMOS 2251 DEB", "group": "cosmos-2251-debris", "lat": -62.67298973750121, "lon": -46.496904925438, "alt_km": 686.887650787201, "timestamp": "2025-12-06T05:40:09.639339+00:00", "meta": {"OBJECT_NAME": "COSMOS 2251 DEB", "OBJECT_ID": "1993-036LT", "EPOCH": "2025-12-04T12:00:20.831040", "MEAN_MOTION": 14.61093789, "ECCENTRICITY": 0.0014485, "INCLINATION": 74.0354, "RA_OF_ASC_NODE": 103.1791, "ARG_OF_PERICENTER": 228.6522, "MEAN_ANOMALY": 251.2363, "EPHEMERIS_TYPE": 0, "CLASSIFICATION_TYPE": "U", "NORAD_CAT_ID": 34273, "ELEMENT_SET_NO": 999, "REV_AT_EPOCH": 88501, "BSTAR": 0.0024882, "MEAN_MOTION_DOT": 0.00012241, "MEAN_MOTION_DDOT": 0}, "tle": {"line1": "1 34273U 93036LT  25338.50024110  .00012241  00000+0  24882-2 0  9999", "line2": "2 34273  74.0354 103.1791 0014485 228.6522 251.2363 14.61093789885017"}}, "geometry": {"type": "Point", "coordinates": [-46.496904925438, -62.67298973750121]}}, {"type": "Feature", "properties": {"norad_id": 34274, "name": "COSMOS 2251 DEB", "group": "cosmos-2251-debris", "lat": -62.04391214413478, "lon": -66.18744656701416, "alt_km": 669.7887906309443, "timestamp": "2025-12-06T05:40:09.639349+00:00", "meta": {"OBJECT_NAME": "COSMOS 2251 DEB", "OBJECT_ID": "1993-036LU", "EPOCH": "2025-12-05T07:22:41.479392", "MEAN_MOTION": 14.64632171, "ECCENTRICITY": 0.00223908, "INCLINATION": 74.005, "RA_OF_ASC_NODE": 82.8851, "ARG_OF_PERICENTER": 233.0204, "MEAN_ANOMALY": 158.3542, "EPHEMERIS_TYPE": 0, "CLASSIFICATION_TYPE": "U", "NORAD_CAT_ID": 34274, "ELEMENT_SET_NO": 999, "REV_AT_EPOCH": 88567, "BSTAR": 0.0024915798, "MEAN_MOTION_DOT": 0.00013287, "MEAN_MOTION_DDOT": 0}, "tle": {"line1": "1 34274U 93036LU  25339.30742453  .00013287  00000+0  24916-2 0  9995", "line2": "2 34274  74.0050  82.8851 0022390 233.0204 158.3542 14.64632171885677"}}, "geometry": {"type": "Point", "coordinates": [-66.18744656701416, -62.04391214413478]}}, {"type": "Feature", "properties": {"norad_id": 34276, "name": "COSMOS 2251 DEB", "group": "cosmos-2251-debris", "lat": 0.4633856667111542, "lon": 97.81770396857095, "alt_km": 711.9888111752989, "timestamp": "2025-12-06T05:40:09.639359+00:00", "meta": {"OBJECT_NAME": "COSMOS 2251 DEB", "OBJECT_ID": "1993-036LW", "EPOCH": "2025-12-05T03:34:13.645920", "MEAN_MOTION": 14.57140497, "ECCENTRICITY": 0.00227791, "INCLINATION": 74.0232, "RA_OF_ASC_NODE": 99.7513, "ARG_OF_PERICENTER": 246.8847, "MEAN_ANOMALY": 171.3172, "EPHEMERIS_TYPE": 0, "CLASSIFICATION_TYPE": "U", "NORAD_CAT_ID": 34276, "ELEMENT_SET_NO": 999, "REV_AT_EPOCH": 88482, "BSTAR": 0.00191819, "MEAN_MOTION_DOT": 8.663e-05, "MEAN_MOTION_DDOT": 0}, "tle": {"line1": "1 34276U 93036LW  25339.14876905  .00008663  00000+0  19182-2 0  9990", "line2": "2 34276  74.0232  99.7513 0022779 246.8847 171.3172 14.57140497884826"}}, "geometry": {"type": "Point", "coordinates": [97.81770396857095, 0.4633856667111542]}}, {"type": "Feature", "properties": {"norad_id": 34297, "name": "COSMOS 2251 DEB", "group": "cosmos-2251-debris", "lat": 43.87999179050079, "lon": 100.21028713518926, "alt_km": 773.018815681955, "timestamp": "2025-12-06T05:40:09.639370+00:00", "meta": {"OBJECT_NAME": "COSMOS 2251 DEB", "OBJECT_ID": "1993-036MT", "EPOCH": "2025-12-05T08:01:49.039104", "MEAN_MOTION": 14.36618338, "ECCENTRICITY": 0.00169585, "INCLINATION": 74.0482, "RA_OF_ASC_NODE": 297.8303, "ARG_OF_PERICENTER": 8.092, "MEAN_ANOMALY": 144.3633, "EPHEMERIS_TYPE": 0, "CLASSIFICATION_TYPE": "U", "NORAD_CAT_ID": 34297, "ELEMENT_SET_NO": 999, "REV_AT_EPOCH": 87958, "BSTAR": 0.00026327421, "MEAN_MOTION_DOT": 7.5e-06, "MEAN_MOTION_DDOT": 0}, "tle": {"line1": "1 34297U 93036MT  25339.33459536  .00000750  00000+0  26327-3 0  9990", "line2": "2 34297  74.0482 297.8303 0016958   8.0920 144.3633 14.36618338879586"}}, "geometry": {"type": "Point", "coordinates": [100.21028713518926, 43.87999179050079]}}, {"type": "Feature", "properties": {"norad_id": 34299, "name": "COSMOS 2251 DEB", "group": "cosmos-2251-debris", "lat": -25.34312098579836, "lon": 177.05792761559215, "alt_km": 398.9259867300607, "timestamp": "2025-12-06T05:40:09.639380+00:00", "meta": {"OBJECT_NAME": "COSMOS 2251 DEB", "OBJECT_ID": "1993-036MV", "EPOCH": "2025-12-05T07:16:17.374368", "MEAN_MOTION": 15.61506103, "ECCENTRICITY": 0.00240745, "INCLINATION": 73.9814, "RA_OF_ASC_NODE": 351.3281, "ARG_OF_PERICENTER": 59.8113, "MEAN_ANOMALY": 300.5486, "EPHEMERIS_TYPE": 0, "CLASSIFICATION_TYPE": "U", "NORAD_CAT_ID": 34299, "ELEMENT_SET_NO": 999, "REV_AT_EPOCH": 88894, "BSTAR": 0.0073102364, "MEAN_MOTION_DOT": 0.00688842, "MEAN_MOTION_DDOT": 0}, "tle": {"line1": "1 34299U 93036MV  25339.30297887  .00688842  00000+0  73102-2 0  9994", "line2": "2 34299  73.9814 351.3281 0024074  59.8113 300.5486 15.61506103888949"}}, "geometry": {"type": "Point", "coordinates": [177.05792761559215, -25.34312098579836]}}, {"type": "Feature", "properties": {"norad_id": 34301, "name": "COSMOS 2251 DEB", "group": "cosmos-2251-debris", "lat": 42.284253144941324, "lon": -165.25580873520462, "alt_km": 620.8414572866905, "timestamp": "2025-12-06T05:40:09.639390+00:00", "meta": {"OBJECT_NAME": "COSMOS 2251 DEB", "OBJECT_ID": "1993-036MX", "EPOCH": "2025-12-05T07:36:39.172320", "MEAN_MOTION": 14.84014939, "ECCENTRICITY": 0.00120995, "INCLINATION": 74.0052, "RA_OF_ASC_NODE": 181.4476, "ARG_OF_PERICENTER": 240.4457, "MEAN_ANOMALY": 295.6791, "EPHEMERIS_TYPE": 0, "CLASSIFICATION_TYPE": "U", "NORAD_CAT_ID": 34301, "ELEMENT_SET_NO": 999, "REV_AT_EPOCH": 88290, "BSTAR": 0.0054144508, "MEAN_MOTION_DOT": 0.00045427, "MEAN_MOTION_DDOT": 0}, "tle": {"line1": "1 34301U 93036MX  25339.31712005  .00045427  00000+0  54145-2 0  9995", "line2": "2 34301  74.0052 181.4476 0012099 240.4457 295.6791 14.84014939882908"}}, "geometry": {"type": "Point", "coordinates": [-165.25580873520462, 42.284253144941324]}}, {"type": "Feature", "properties": {"norad_id": 34302, "name": "COSMOS 2251 DEB", "group": "cosmos-2251-debris", "lat": 67.24252251883644, "lon": -87.05073694403988, "alt_km": 776.1881556770904, "timestamp": "2025-12-06T05:40:09.639413+00:00", "meta": {"OBJECT_NAME": "COSMOS 2251 DEB", "OBJECT_ID": "1993-036MY", "EPOCH": "2025-12-05T06:05:34.305792", "MEAN_MOTION": 14.39286569, "ECCENTRICITY": 0.00783018, "INCLINATION": 74.1778, "RA_OF_ASC_NODE": 137.2779, "ARG_OF_PERICENTER": 354.7425, "MEAN_ANOMALY": 63.0323, "EPHEMERIS_TYPE": 0, "CLASSIFICATION_TYPE": "U", "NORAD_CAT_ID": 34302, "ELEMENT_SET_NO": 999, "REV_AT_EPOCH": 87613, "BSTAR": 0.0011709643, "MEAN_MOTION_DOT": 3.744e-05, "MEAN_MOTION_DDOT": 0}, "tle": {"line1": "1 34302U 93036MY  25339.25386928  .00003744  00000+0  11710-2 0  9997", "line2": "2 34302  74.1778 137.2779 0078301 354.7425  63.0323 14.39286569876138"}}, "geometry": {"type": "Point", "coordinates": [-87.05073694403988, 67.24252251883644]}}]}